STARLINK-31257          
1 59079U 24041F   26068.03876622  .00000506  00000+0  27929-4 0  9990
2 59079  43.0036 314.2360 0001446 256.3758 103.6933 15.27580429114170
LIME                    
1 62648U 25009AR  26068.73906781  .00013254  00000+0  47723-3 0  9995
2 62648  97.3985 151.4831 0001635  35.9029 324.2320 15.28703313 63766
